KUIPER-00027            
1 63740U 25088S   25252.25004630  .00052826  00000+0  41013-2 0  9992
2 63740  51.8919 178.5897 0002917 290.2416 257.3674 15.00823166  5868
KUIPER-00028            
1 63741U 25088T   25252.25004630  .00053071  00000+0  34458-2 0  9991
2 63741  51.8881 177.2803 0002505 269.2277 166.0868 15.07528992  4848
KUIPER-00029            
1 63742U 25088U   25252.25004630  .00057785  00000+0  32260-2 0  9997
2 63742  51.8825 176.5459 0004585 244.3918 126.0147 15.12971671  5177
KUIPER-00030            
1 63743U 25088V   25252.25894535  .00002010  00000+0  29248-3 0  9993
2 63743  51.9018 192.8169 0013485 195.5406 164.5144 14.79954728 20762
KUIPER-00031            
1 63744U 25088W   25252.25004630 -.00070164  00000+0 -62611-2 0  9990
2 63744  51.8933 179.5376 0002439 176.7127 148.9406 14.95799832  3936
KUIPER-00032            
1 63745U 25088X   25252.09673850  .00011459  00000+0  40154-3 0  9998
2 63745  51.8727 177.0776 0004785 175.7632 184.3393 15.29914327 21688
KUIPER-00033            
1 63746U 25088Y   25252.10612271 -.00005749  00000+0 -72550-3 0  9993
2 63746  51.8988 209.5521 0003144 326.1809  33.8953 14.79935874 20710
KUIPER-00034            
1 63747U 25088Z   25252.25004630  .00021708  00000+0  10064-2 0  9996
2 63747  51.8861 174.8885 0001197 137.5144  34.5166 15.20000128  5652
